NORAD_CAT_ID,OBJECT_NAME,OBJECT_TYPE,EPOCH,MEAN_MOTION,ECCENTRICITY,INCLINATION,RA_OF_ASC_NODE,ARG_OF_PERICENTER,MEAN_ANOMALY,BSTAR,MEAN_MOTION_DOT,MEAN_MOTION_DDOT,TLE_LINE0,TLE_LINE1,TLE_LINE2,SEMIMAJOR_AXIS,PERIOD,APOGEE,PERIGEE,DECAYED
52567.0,STARLINK-3929,PAYLOAD,2024-07-21 11:26:31,15.08846312,0.00015,53.2164,275.6275,95.4352,264.6811,0.00016241,2.298e-05,0.0,0 STARLINK-3929,1 52567U 22051AL  24203.47675802  .00002298  00000-0  16241-3 0  9993,2 52567  53.2164 275.6275 0001500  95.4352 264.6811 15.08846312121578,6917.861,95.437,540.764,538.688,0.0
52567.0,STARLINK-3929,PAYLOAD,2024-07-22 09:41:56,15.08835752,0.0001577,53.2165,271.4631,95.6696,264.4476,-5.3765e-06,-3.74e-06,0.0,0 STARLINK-3929,1 52567U 22051AL  24204.40412416 -.00000374  00000-0 -53765-5 0  9996,2 52567  53.2165 271.4631 0001577  95.6696 264.4476 15.08835752121780,6917.893,95.438,540.849,538.667,0.0
52567.0,STARLINK-3929,PAYLOAD,2024-07-22 14:28:05,15.08847254,0.0001589,53.2167,270.5693,102.1196,257.9974,-9.2294e-05,-1.757e-05,0.0,0 STARLINK-3929,1 52567U 22051AL  24204.60284117 -.00001757  00000-0 -92294-4 0  9998,2 52567  53.2167 270.5693 0001589 102.1196 257.9974 15.08847254121748,6917.858,95.437,540.822,538.624,0.0
52567.0,STARLINK-3929,PAYLOAD,2024-07-23 04:46:34,15.08834262,0.000149,53.2162,267.8916,110.8495,249.2656,1.4512e-05,-5.7e-07,0.0,0 STARLINK-3929,1 52567U 22051AL  24205.19900873 -.00000057  00000-0  14512-4 0  9995,2 52567  53.2162 267.8916 0001490 110.8495 249.2656 15.08834262121903,6917.898,95.438,540.794,538.732,0.0
52567.0,STARLINK-3929,PAYLOAD,2024-07-23 11:08:06,15.08837298,0.0001387,53.2167,266.7082,88.0192,272.0959,6.0283e-05,6.72e-06,0.0,0 STARLINK-3929,1 52567U 22051AL  24205.46396768  .00000672  00000-0  60283-4 0  9995,2 52567  53.2167 266.7082 0001387  88.0192 272.0959 15.08837298121873,6917.889,95.438,540.713,538.794,0.0
52567.0,STARLINK-3929,PAYLOAD,2024-07-24 12:34:17,15.08836195,0.0001743,53.2163,261.9509,120.0416,240.0749,0.00010564,1.393e-05,0.0,0 STARLINK-3929,1 52567U 22051AL  24206.52381248  .00001393  00000-0  10564-3 0  9997,2 52567  53.2163 261.9509 0001743 120.0416 240.0749 15.08836195122106,6917.892,95.438,540.963,538.551,0.0
52567.0,STARLINK-3929,PAYLOAD,2024-07-25 04:28:10,15.08824148,0.000154,53.218,258.9774,101.6594,258.4571,5.8839e-06,-1.94e-06,0.0,0 STARLINK-3929,1 52567U 22051AL  24207.18622908 -.00000194  00000-0  58839-5 0  9999,2 52567  53.2180 258.9774 0001540 101.6594 258.4571 15.08824148122204,6917.929,95.439,540.859,538.728,0.0
52567.0,STARLINK-3929,PAYLOAD,2024-07-25 14:00:28,15.08829922,0.0001596,53.2176,257.1915,102.5307,257.5864,5.0995e-05,5.23e-06,0.0,0 STARLINK-3929,1 52567U 22051AL  24207.58366694  .00000523  00000-0  50995-4 0  9999,2 52567  53.2176 257.1915 0001596 102.5307 257.5864 15.08829922122266,6917.911,95.438,540.88,538.672,0.0
52567.0,STARLINK-3929,PAYLOAD,2024-07-26 09:05:05,15.08848007,0.000138,53.2164,253.6233,91.9755,268.1395,0.00022121,3.235e-05,0.0,0 STARLINK-3929,1 52567U 22051AL  24208.37853232  .00003235  00000-0  22121-3 0  9998,2 52567  53.2164 253.6233 0001380  91.9755 268.1395 15.08848007122381,6917.856,95.437,540.676,538.766,0.0
52567.0,STARLINK-3929,PAYLOAD,2024-07-26 20:12:46,15.08861804,0.0001311,53.2165,251.5415,94.4746,265.6396,6.4927e-05,7.46e-06,0.0,0 STARLINK-3929,1 52567U 22051AL  24208.84220358  .00000746  00000-0  64927-4 0  9992,2 52567  53.2165 251.5415 0001311  94.4746 265.6396 15.08861804122454,6917.814,95.436,540.586,538.772,0.0
52567.0,STARLINK-3929,PAYLOAD,2024-07-27 08:55:49,15.08882701,7.3e-05,53.2148,249.1614,89.8776,270.23,0.00056019,8.649e-05,0.0,0 STARLINK-3929,1 52567U 22051AL  24209.37210512  .00008649  00000-0  56019-3 0  9994,2 52567  53.2148 249.1614 0000730  89.8776 270.2300 15.08882701122539,6917.75,95.435,540.12,539.11,0.0
52567.0,STARLINK-3929,PAYLOAD,2024-07-28 13:32:48,15.08841476,0.0001259,53.2151,243.8096,87.5262,272.5874,-0.00015734,-2.791e-05,0.0,0 STARLINK-3929,1 52567U 22051AL  24210.56444480 -.00002791  00000-0 -15734-3 0  9993,2 52567  53.2151 243.8096 0001259  87.5262 272.5874 15.08841476122715,6917.876,95.437,540.612,538.87,0.0
52567.0,STARLINK-3929,PAYLOAD,2024-07-29 08:37:25,15.08846262,0.0001372,53.2153,240.2407,86.9639,273.1511,-0.0001851,-3.233e-05,0.0,0 STARLINK-3929,1 52567U 22051AL  24211.35932178 -.00003233  00000-0 -18510-3 0  9994,2 52567  53.2153 240.2407 0001372  86.9639 273.1511 15.08846262122769,6917.861,95.437,540.675,538.777,0.0
52567.0,STARLINK-3929,PAYLOAD,2024-07-30 05:17:26,15.08838123,0.0001305,53.2154,236.3752,89.8898,270.2244,0.00022514,3.297e-05,0.0,0 STARLINK-3929,1 52567U 22051AL  24212.22045120  .00003297  00000-0  22514-3 0  9990,2 52567  53.2154 236.3752 0001305  89.8898 270.2244 15.08838123122964,6917.886,95.438,540.654,538.848,0.0
52567.0,STARLINK-3929,PAYLOAD,2024-07-30 11:38:59,15.08844431,0.0001293,53.215,235.1859,88.1585,271.9555,0.00030132,4.511e-05,0.0,0 STARLINK-3929,1 52567U 22051AL  24212.48540945  .00004511  00000-0  30132-3 0  9998,2 52567  53.2150 235.1859 0001293  88.1585 271.9555 15.08844431122935,6917.867,95.437,540.626,538.837,0.0
52567.0,STARLINK-3929,PAYLOAD,2024-07-30 18:00:31,15.08843582,0.0001264,53.2146,233.9959,86.9595,273.1541,0.00025639,3.795e-05,0.0,0 STARLINK-3929,1 52567U 22051AL  24212.75036998  .00003795  00000-0  25639-3 0  9995,2 52567  53.2146 233.9959 0001264  86.9595 273.1541 15.08843582122971,6917.869,95.437,540.609,538.86,0.0
52567.0,STARLINK-3929,PAYLOAD,2024-07-31 08:18:59,15.08847153,0.0001279,53.2144,231.3195,87.1274,272.9864,0.00020969,3.052e-05,0.0,0 STARLINK-3929,1 52567U 22051AL  24213.34652764  .00003052  00000-0  20969-3 0  9993,2 52567  53.2144 231.3195 0001279  87.1274 272.9864 15.08847153123138,6917.859,95.437,540.608,538.839,0.0
52567.0,STARLINK-3929,PAYLOAD,2024-08-01 04:59:03,15.08813916,0.0001386,53.2144,227.4531,87.3978,272.7173,-0.00021231,-3.663e-05,0.0,0 STARLINK-3929,1 52567U 22051AL  24214.20767532 -.00003663  00000-0 -21231-3 0  9992,2 52567  53.2144 227.4531 0001386  87.3978 272.7173 15.08813916123265,6917.96,95.439,540.784,538.866,0.0
52567.0,STARLINK-3929,PAYLOAD,2024-08-01 06:34:26,15.0881715,0.0001599,53.2144,227.1558,105.4764,254.6404,-0.00016695,-2.942e-05,0.0,0 STARLINK-3929,1 52567U 22051AL  24214.27391389 -.00002942  00000-0 -16695-3 0  9999,2 52567  53.2144 227.1558 0001599 105.4764 254.6404 15.08817150123206,6917.95,95.439,540.921,538.709,0.0
52567.0,STARLINK-3929,PAYLOAD,2024-08-01 17:42:07,15.08835563,0.0001295,53.2145,225.0746,90.5635,269.5505,0.00015223,2.135e-05,0.0,0 STARLINK-3929,1 52567U 22051AL  24214.73759073  .00002135  00000-0  15223-3 0  9996,2 52567  53.2145 225.0746 0001295  90.5635 269.5505 15.08835563123347,6917.894,95.438,540.655,538.863,0.0
52567.0,STARLINK-3929,PAYLOAD,2024-08-02 09:35:59,15.0885727,0.0001306,53.2135,222.1055,99.1073,261.0067,0.00089185,0.00013941,0.0,0 STARLINK-3929,1 52567U 22051AL  24215.39999173  .00013941  00000-0  89185-3 0  9991,2 52567  53.2135 222.1055 0001306  99.1073 261.0067 15.08857270123441,6917.828,95.436,540.596,538.789,0.0
52567.0,STARLINK-3929,PAYLOAD,2024-08-02 17:32:54,15.08864269,0.000134,53.2132,220.6174,96.2913,263.8232,0.00086813,0.00013564,0.0,0 STARLINK-3929,1 52567U 22051AL  24215.73118781  .00013564  00000-0  86813-3 0  9993,2 52567  53.2132 220.6174 0001340  96.2913 263.8232 15.08864269123420,6917.806,95.436,540.598,538.744,0.0
52567.0,STARLINK-3929,PAYLOAD,2024-08-03 04:40:35,15.08868274,0.0001306,53.2133,218.532,95.949,264.1651,0.00064636,0.00010022,0.0,0 STARLINK-3929,1 52567U 22051AL  24216.19485977  .00010022  00000-0  64636-3 0  9993,2 52567  53.2133 218.5320 0001306  95.9490 264.1651 15.08868274123562,6917.794,95.436,540.562,538.756,0.0
52567.0,STARLINK-3929,PAYLOAD,2024-08-03 07:51:21,15.0886933,0.0001289,53.2133,217.9373,96.1885,263.9254,0.00059209,9.155e-05,0.0,0 STARLINK-3929,1 52567U 22051AL  24216.32733723  .00009155  00000-0  59209-3 0  9998,2 52567  53.2133 217.9373 0001289  96.1885 263.9254 15.08869330123519,6917.791,95.436,540.547,538.764,0.0
52567.0,STARLINK-3929,PAYLOAD,2024-08-03 17:23:40,15.08856889,0.0001423,53.2138,216.1525,88.309,271.8065,0.000154,2.165e-05,0.0,0 STARLINK-3929,1 52567U 22051AL  24216.72477633  .00002165  00000-0  15400-3 0  9996,2 52567  53.2138 216.1525 0001423  88.3090 271.8065 15.08856889123642,6917.829,95.436,540.678,538.709,0.0
52567.0,STARLINK-3929,PAYLOAD,2024-08-04 06:06:45,15.08845691,0.0001429,53.2139,213.7734,95.5171,264.5984,-5.7804e-05,-1.208e-05,0.0,0 STARLINK-3929,1 52567U 22051AL  24217.25469661 -.00001208  00000-0 -57804-4 0  9991,2 52567  53.2139 213.7734 0001429  95.5171 264.5984 15.08845691123721,6917.863,95.437,540.717,538.739,0.0
52567.0,STARLINK-3929,PAYLOAD,2024-08-04 17:14:27,15.08848389,0.0001378,53.2144,211.6919,93.7473,266.3677,5.1464e-05,5.31e-06,0.0,0 STARLINK-3929,1 52567U 22051AL  24217.71837633  .00000531  00000-0  51464-4 0  9992,2 52567  53.2144 211.6919 0001378  93.7473 266.3677 15.08848389123723,6917.855,95.437,540.673,538.766,0.0
52567.0,STARLINK-3929,PAYLOAD,2024-08-05 05:57:32,15.08855145,0.0001373,53.214,209.313,92.4173,267.6977,0.00022281,3.261e-05,0.0,0 STARLINK-3929,1 52567U 22051AL  24218.24829122  .00003261  00000-0  22281-3 0  9992,2 52567  53.2140 209.3130 0001373  92.4173 267.6977 15.08855145123877,6917.834,95.437,540.649,538.749,0.0
52567.0,STARLINK-3929,PAYLOAD,2024-08-05 17:05:14,15.08847678,0.0001075,53.2146,207.2333,77.5921,282.5192,0.00013156,1.807e-05,0.0,0 STARLINK-3929,1 52567U 22051AL  24218.71197192  .00001807  00000-0  13156-3 0  9994,2 52567  53.2146 207.2333 0001075  77.5921 282.5192 15.08847678123944,6917.857,95.437,540.466,538.978,0.0
52567.0,STARLINK-3929,PAYLOAD,2024-08-06 05:48:20,15.08829344,0.0001363,53.2146,204.8528,98.7501,261.3646,-5.2941e-05,-1.13e-05,0.0,0 STARLINK-3929,1 52567U 22051AL  24219.24190350 -.00001130  00000-0 -52941-4 0  9999,2 52567  53.2146 204.8528 0001363  98.7501 261.3646 15.08829344124021,6917.913,95.438,540.721,538.835,0.0
